{
  "type": "FeatureCollection",
  "features": [
    {
      "type": "Feature",
      "properties": {
        "norad_id": 34350,
        "name": "IRIDIUM 33 DEB",
        "group": "iridium-33-debris",
        "lat": -65.60588473713987,
        "lon": -6.255378995553104,
        "alt_km": 763.8951115881364,
        "timestamp": "2025-12-14T20:40:32.157578+00:00",
        "meta_object_name": "IRIDIUM 33 DEB",
        "meta_object_id": "1997-051ES",
        "meta_epoch": "2025-12-14T07:45:39.237120",
        "meta_mean_motion": 14.45391202,
        "meta_eccentricity": 0.00229581,
        "meta_inclination": 86.3275,
        "meta_ra_of_asc_node": 2.12,
        "meta_arg_of_pericenter": 130.2714,
        "meta_mean_anomaly": 245.6158,
        "meta_ephemeris_type": 0,
        "meta_classification_type": "U",
        "meta_norad_cat_id": 34350,
        "meta_element_set_no": 999,
        "meta_rev_at_epoch": 88316,
        "meta_bstar": 0.00041566324,
        "meta_mean_motion_dot": 1.486e-05,
        "meta_mean_motion_ddot": 0,
        "tle_line1": "1 34350U 97051ES  25348.32337080  .00001486  00000+0  41566-3 0  9998",
        "tle_line2": "2 34350  86.3275   2.1200 0022958 130.2714 245.6158 14.45391202883165"
      },
      "geometry": {
        "type": "Point",
        "coordinates": [
          -6.255378995553104,
          -65.60588473713987
        ]
      }
    },
    {
      "type": "Feature",
      "properties": {
        "norad_id": 34366,
        "name": "IRIDIUM 33 DEB",
        "group": "iridium-33-debris",
        "lat": -31.811669806139207,
        "lon": 46.133953078464856,
        "alt_km": 733.9430748365439,
        "timestamp": "2025-12-14T20:40:32.157589+00:00",
        "meta_object_name": "IRIDIUM 33 DEB",
        "meta_object_id": "1997-051FJ",
        "meta_epoch": "2025-12-14T04:33:16.962624",
        "meta_mean_motion": 14.54076443,
        "meta_eccentricity": 0.00225871,
        "meta_inclination": 86.37,
        "meta_ra_of_asc_node": 48.6828,
        "meta_arg_of_pericenter": 135.0353,
        "meta_mean_anomaly": 279.363,
        "meta_ephemeris_type": 0,
        "meta_classification_type": "U",
        "meta_norad_cat_id": 34366,
        "meta_element_set_no": 999,
        "meta_rev_at_epoch": 88203,
        "meta_bstar": 0.0011382007,
        "meta_mean_motion_dot": 4.841e-05,
        "meta_mean_motion_ddot": 0,
        "tle_line1": "1 34366U 97051FJ  25348.18977966  .00004841  00000+0  11382-2 0  9992",
        "tle_line2": "2 34366  86.3700  48.6828 0022587 135.0353 279.3630 14.54076443882037"
      },
      "geometry": {
        "type": "Point",
        "coordinates": [
          46.133953078464856,
          -31.811669806139207
        ]
      }
    },
    {
      "type": "Feature",
      "properties": {
        "norad_id": 34375,
        "name": "IRIDIUM 33 DEB",
        "group": "iridium-33-debris",
        "lat": -32.321274096210026,
        "lon": 179.58164398342367,
        "alt_km": 904.13685672272,
        "timestamp": "2025-12-14T20:40:32.157599+00:00",
        "meta_object_name": "IRIDIUM 33 DEB",
        "meta_object_id": "1997-051FT",
        "meta_epoch": "2025-12-13T19:31:13.647360",
        "meta_mean_motion": 14.17994581,
        "meta_eccentricity": 0.01033715,
        "meta_inclination": 86.4325,
        "meta_ra_of_asc_node": 182.2662,
        "meta_arg_of_pericenter": 123.3571,
        "meta_mean_anomaly": 257.7603,
        "meta_ephemeris_type": 0,
        "meta_classification_type": "U",
        "meta_norad_cat_id": 34375,
        "meta_element_set_no": 999,
        "meta_rev_at_epoch": 86727,
        "meta_bstar": 0.00056520957,
        "meta_mean_motion_dot": 1.239e-05,
        "meta_mean_motion_ddot": 0,
        "tle_line1": "1 34375U 97051FT  25347.81335240  .00001239  00000+0  56521-3 0  9997",
        "tle_line2": "2 34375  86.4325 182.2662 0103371 123.3571 257.7603 14.17994581867275"
      },
      "geometry": {
        "type": "Point",
        "coordinates": [
          179.58164398342367,
          -32.321274096210026
        ]
      }
    },
    {
      "type": "Feature",
      "properties": {
        "norad_id": 34376,
        "name": "IRIDIUM 33 DEB",
        "group": "iridium-33-debris",
        "lat": -39.140230863725165,
        "lon": 2.5662407292478506,
        "alt_km": 709.6485666864792,
        "timestamp": "2025-12-14T20:40:32.157610+00:00",
        "meta_object_name": "IRIDIUM 33 DEB",
        "meta_object_id": "1997-051FU",
        "meta_epoch": "2025-12-14T07:43:11.248608",
        "meta_mean_motion": 14.62599257,
        "meta_eccentricity": 0.00273645,
        "meta_inclination": 86.2986,
        "meta_ra_of_asc_node": 5.8288,
        "meta_arg_of_pericenter": 161.3609,
        "meta_mean_anomaly": 198.8611,
        "meta_ephemeris_type": 0,
        "meta_classification_type": "U",
        "meta_norad_cat_id": 34376,
        "meta_element_set_no": 999,
        "meta_rev_at_epoch": 88030,
        "meta_bstar": 0.0015257547,
        "meta_mean_motion_dot": 7.815e-05,
        "meta_mean_motion_ddot": 0,
        "tle_line1": "1 34376U 97051FU  25348.32165797  .00007815  00000+0  15258-2 0  9990",
        "tle_line2": "2 34376  86.2986   5.8288 0027364 161.3609 198.8611 14.62599257880306"
      },
      "geometry": {
        "type": "Point",
        "coordinates": [
          2.5662407292478506,
          -39.140230863725165
        ]
      }
    },
    {
      "type": "Feature",
      "properties": {
        "norad_id": 34486,
        "name": "IRIDIUM 33 DEB",
        "group": "iridium-33-debris",
        "lat": 70.71297810505607,
        "lon": 21.428720930912714,
        "alt_km": 564.9685084549455,
        "timestamp": "2025-12-14T20:40:32.157621+00:00",
        "meta_object_name": "IRIDIUM 33 DEB",
        "meta_object_id": "1997-051GB",
        "meta_epoch": "2025-12-14T07:34:38.832672",
        "meta_mean_motion": 14.95900422,
        "meta_eccentricity": 0.00137992,
        "meta_inclination": 86.3937,
        "meta_ra_of_asc_node": 11.2977,
        "meta_arg_of_pericenter": 108.87,
        "meta_mean_anomaly": 265.2094,
        "meta_ephemeris_type": 0,
        "meta_classification_type": "U",
        "meta_norad_cat_id": 34486,
        "meta_element_set_no": 999,
        "meta_rev_at_epoch": 89010,
        "meta_bstar": 0.0022000778,
        "meta_mean_motion_dot": 0.00024735,
        "meta_mean_motion_ddot": 0,
        "tle_line1": "1 34486U 97051GB  25348.31572723  .00024735  00000+0  22001-2 0  9996",
        "tle_line2": "2 34486  86.3937  11.2977 0013799 108.8700 265.2094 14.95900422890105"
      },
      "geometry": {
        "type": "Point",
        "coordinates": [
          21.428720930912714,
          70.71297810505607
        ]
      }
    },
    {
      "type": "Feature",
      "properties": {
        "norad_id": 34487,
        "name": "IRIDIUM 33 DEB",
        "group": "iridium-33-debris",
        "lat": 44.38890048639125,
        "lon": 15.052813857428484,
        "alt_km": 738.8636884358993,
        "timestamp": "2025-12-14T20:40:32.157631+00:00",
        "meta_object_name": "IRIDIUM 33 DEB",
        "meta_object_id": "1997-051GC",
        "meta_epoch": "2025-12-14T02:25:11.026848",
        "meta_mean_motion": 14.43218244,
        "meta_eccentricity": 0.00328516,
        "meta_inclination": 86.3436,
        "meta_ra_of_asc_node": 11.7914,
        "meta_arg_of_pericenter": 124.1051,
        "meta_mean_anomaly": 291.2794,
        "meta_ephemeris_type": 0,
        "meta_classification_type": "U",
        "meta_norad_cat_id": 34487,
        "meta_element_set_no": 999,
        "meta_rev_at_epoch": 88268,
        "meta_bstar": 0.00024156474,
        "meta_mean_motion_dot": 8.38e-06,
        "meta_mean_motion_ddot": 0,
        "tle_line1": "1 34487U 97051GC  25348.10082207  .00000838  00000+0  24156-3 0  9999",
        "tle_line2": "2 34487  86.3436  11.7914 0032851 124.1051 291.2794 14.43218244882683"
      },
      "geometry": {
        "type": "Point",
        "coordinates": [
          15.052813857428484,
          44.38890048639125
        ]
      }
    },
    {
      "type": "Feature",
      "properties": {
        "norad_id": 34488,
        "name": "IRIDIUM 33 DEB",
        "group": "iridium-33-debris",
        "lat": -47.153284993310336,
        "lon": -59.21320227896618,
        "alt_km": 483.0337331502933,
        "timestamp": "2025-12-14T20:40:32.157642+00:00",
        "meta_object_name": "IRIDIUM 33 DEB",
        "meta_object_id": "1997-051GD",
        "meta_epoch": "2025-12-13T21:20:06.708192",
        "meta_mean_motion": 15.29804687,
        "meta_eccentricity": 0.00127774,
        "meta_inclination": 86.3232,
        "meta_ra_of_asc_node": 305.2445,
        "meta_arg_of_pericenter": 49.9187,
        "meta_mean_anomaly": 310.3179,
        "meta_ephemeris_type": 0,
        "meta_classification_type": "U",
        "meta_norad_cat_id": 34488,
        "meta_element_set_no": 999,
        "meta_rev_at_epoch": 89257,
        "meta_bstar": 0.0047409619,
        "meta_mean_motion_dot": 0.00139416,
        "meta_mean_motion_ddot": 0,
        "tle_line1": "1 34488U 97051GD  25347.88896653  .00139416  00000+0  47410-2 0  9994",
        "tle_line2": "2 34488  86.3232 305.2445 0012777  49.9187 310.3179 15.29804687892573"
      },
      "geometry": {
        "type": "Point",
        "coordinates": [
          -59.21320227896618,
          -47.153284993310336
        ]
      }
    }
  ]
}